start=new Date('2021-09-25T00:00:00.000Z').valueOf();
sats=[{"APOAPSIS":"547.883","OBJECT_TYPE":"PAYLOAD","CLASSIFICATION_TYPE":"U","ARG_OF_PERICENTER":"63.6076","MEAN_ANOMALY":"296.5012","FILE":"3126800","COUNTRY_CODE":"US","EPHEMERIS_TYPE":"0","NORAD_CAT_ID":"46565","OBJECT_NAME":"STARLINK-1735","MEAN_MOTION":"15.06399365","MEAN_ELEMENT_THEORY":"SGP4","ELEMENT_SET_NO":"999","DECAY_DATE":null,"REF_FRAME":"TEME","RA_OF_ASC_NODE":"260.4681","MEAN_MOTION_DOT":"-0.00000485","LAUNCH_DATE":"2020-10-06","REV_AT_EPOCH":"5455","PERIOD":"95.592","TLE_LINE1":"1 46565U 20070AK  21267.67881654 -.00000485  00000-0 -13710-4 0  9993","EPOCH":"2021-09-24T16:17:29.749056","CENTER_NAME":"EARTH","OBJECT_ID":"2020-070AK","MEAN_MOTION_DDOT":"0.0000000000000","INCLINATION":"53.0553","BSTAR":"-0.00001371000000","GP_ID":"185428814","SITE":"AFETR","TIME_SYSTEM":"UTC","RCS_SIZE":"LARGE","ECCENTRICITY":"0.00009640","PERIAPSIS":"546.548","SEMIMAJOR_AXIS":"6925.351","TLE_LINE2":"2 46565  53.0553 260.4681 0000964  63.6076 296.5012 15.06399365 54554"},{"REV_AT_EPOCH":"5451","PERIOD":"95.592","TLE_LINE1":"1 46566U 20070AL  21267.39869251  .00001538  00000-0  12211-3 0  9994","EPOCH":"2021-09-24T09:34:07.032864","CENTER_NAME":"EARTH","OBJECT_ID":"2020-070AL","MEAN_MOTION_DDOT":"0.0000000000000","INCLINATION":"53.0544","BSTAR":"0.00012211000000","GP_ID":"185387801","SITE":"AFETR","RCS_SIZE":"LARGE","TIME_SYSTEM":"UTC","ECCENTRICITY":"0.00007440","SEMIMAJOR_AXIS":"6925.361","PERIAPSIS":"546.711","TLE_LINE2":"2 46566  53.0544 261.8235 0000744  53.0481 307.0576 15.06395977 54518","APOAPSIS":"547.741","CLASSIFICATION_TYPE":"U","OBJECT_TYPE":"PAYLOAD","ARG_OF_PERICENTER":"53.0481","FILE":"3126002","COUNTRY_CODE":"US","MEAN_ANOMALY":"307.0576","NORAD_CAT_ID":"46566","EPHEMERIS_TYPE":"0","OBJECT_NAME":"STARLINK-1740","MEAN_MOTION":"15.06395977","MEAN_ELEMENT_THEORY":"SGP4","DECAY_DATE":null,"ELEMENT_SET_NO":"999","REF_FRAME":"TEME","RA_OF_ASC_NODE":"261.8235","MEAN_MOTION_DOT":"0.00001538","LAUNCH_DATE":"2020-10-06"},{"MEAN_MOTION":"15.06401275","MEAN_ELEMENT_THEORY":"SGP4","ELEMENT_SET_NO":"999","DECAY_DATE":null,"OBJECT_NAME":"STARLINK-1741","MEAN_MOTION_DOT":"-0.00000264","LAUNCH_DATE":"2020-10-06","REF_FRAME":"TEME","RA_OF_ASC_NODE":"260.5008","CLASSIFICATION_TYPE":"U","OBJECT_TYPE":"PAYLOAD","ARG_OF_PERICENTER":"70.5581","APOAPSIS":"547.885","EPHEMERIS_TYPE":"0","NORAD_CAT_ID":"46567","MEAN_ANOMALY":"289.5513","FILE":"3126800","COUNTRY_CODE":"US","BSTAR":"0.00000113130000","GP_ID":"185430315","SITE":"AFETR","TIME_SYSTEM":"UTC","RCS_SIZE":"LARGE","OBJECT_ID":"2020-070AM","MEAN_MOTION_DDOT":"0.0000000000000","INCLINATION":"53.0540","TLE_LINE2":"2 46567  53.0540 260.5008 0000975  70.5581 289.5513 15.06401275 54569","ECCENTRICITY":"0.00009750","PERIAPSIS":"546.534","SEMIMAJOR_AXIS":"6925.345","REV_AT_EPOCH":"5456","CENTER_NAME":"EARTH","EPOCH":"2021-09-24T16:38:43.660032","PERIOD":"95.592","TLE_LINE1":"1 46567U 20070AM  21267.69356088 -.00000264  00000-0  11313-5 0  9997"},{"ECCENTRICITY":"0.00075380","PERIAPSIS":"470.471","SEMIMAJOR_AXIS":"6853.772","TLE_LINE2":"2 46568  53.0548 272.4915 0007538 277.9936  82.0208 15.30059320 54391","OBJECT_ID":"2020-070AN","MEAN_MOTION_DDOT":"0.0000000000000","INCLINATION":"53.0548","BSTAR":"0.00466130000000","GP_ID":"185429064","SITE":"AFETR","TIME_SYSTEM":"UTC","RCS_SIZE":"LARGE","PERIOD":"94.114","TLE_LINE1":"1 46568U 20070AN  21267.74259363  .00139803  00000-0  46613-2 0  9991","CENTER_NAME":"EARTH","EPOCH":"2021-09-24T17:49:20.089632","REV_AT_EPOCH":"5439","REF_FRAME":"TEME","RA_OF_ASC_NODE":"272.4915","MEAN_MOTION_DOT":"0.00139803","LAUNCH_DATE":"2020-10-06","OBJECT_NAME":"STARLINK-1743","MEAN_MOTION":"15.30059320","MEAN_ELEMENT_THEORY":"SGP4","ELEMENT_SET_NO":"999","DECAY_DATE":null,"FILE":"3126800","MEAN_ANOMALY":"82.0208","COUNTRY_CODE":"US","NORAD_CAT_ID":"46568","EPHEMERIS_TYPE":"0","APOAPSIS":"480.804","OBJECT_TYPE":"PAYLOAD","CLASSIFICATION_TYPE":"U","ARG_OF_PERICENTER":"277.9936"},{"MEAN_MOTION_DDOT":"0.0000000000000","INCLINATION":"53.0534","OBJECT_ID":"2020-070AP","GP_ID":"185429314","BSTAR":"0.00014101000000","TIME_SYSTEM":"UTC","SITE":"AFETR","RCS_SIZE":"LARGE","ECCENTRICITY":"0.00010170","SEMIMAJOR_AXIS":"6925.344","PERIAPSIS":"546.505","TLE_LINE2":"2 46569  53.0534 260.4227 0001017  61.4429 298.6662 15.06401327 54568","REV_AT_EPOCH":"5456","TLE_LINE1":"1 46569U 20070AP  21267.70831280  .00001820  00000-0  14101-3 0  9997","PERIOD":"95.592","EPOCH":"2021-09-24T16:59:58.225920","CENTER_NAME":"EARTH","OBJECT_NAME":"STARLINK-1747","MEAN_MOTION":"15.06401327","DECAY_DATE":null,"ELEMENT_SET_NO":"999","MEAN_ELEMENT_THEORY":"SGP4","REF_FRAME":"TEME","RA_OF_ASC_NODE":"260.4227","MEAN_MOTION_DOT":"0.00001820","LAUNCH_DATE":"2020-10-06","APOAPSIS":"547.914","OBJECT_TYPE":"PAYLOAD","CLASSIFICATION_TYPE":"U","ARG_OF_PERICENTER":"61.4429","FILE":"3126800","COUNTRY_CODE":"US","MEAN_ANOMALY":"298.6662","NORAD_CAT_ID":"46569","EPHEMERIS_TYPE":"0"},{"REV_AT_EPOCH":"5455","PERIOD":"95.591","TLE_LINE1":"1 46570U 20070AQ  21267.68247069  .00004477  00000-0  31907-3 0  9996","EPOCH":"2021-09-24T16:22:45.467616","CENTER_NAME":"EARTH","OBJECT_ID":"2020-070AQ","MEAN_MOTION_DDOT":"0.0000000000000","INCLINATION":"53.0527","SITE":"AFETR","TIME_SYSTEM":"UTC","RCS_SIZE":"LARGE","BSTAR":"0.00031907000000","GP_ID":"185430063","PERIAPSIS":"546.294","SEMIMAJOR_AXIS":"6925.280","ECCENTRICITY":"0.00012290","TLE_LINE2":"2 46570  53.0527 260.5307 0001229  68.9882 291.1238 15.06422333 54558","APOAPSIS":"547.996","ARG_OF_PERICENTER":"68.9882","OBJECT_TYPE":"PAYLOAD","CLASSIFICATION_TYPE":"U","COUNTRY_CODE":"US","FILE":"3126800","MEAN_ANOMALY":"291.1238","EPHEMERIS_TYPE":"0","NORAD_CAT_ID":"46570","OBJECT_NAME":"STARLINK-1748","MEAN_ELEMENT_THEORY":"SGP4","DECAY_DATE":null,"ELEMENT_SET_NO":"999","MEAN_MOTION":"15.06422333","RA_OF_ASC_NODE":"260.5307","REF_FRAME":"TEME","LAUNCH_DATE":"2020-10-06","MEAN_MOTION_DOT":"0.00004477"},{"ECCENTRICITY":"0.00010160","PERIAPSIS":"546.513","SEMIMAJOR_AXIS":"6925.351","TLE_LINE2":"2 46571  53.0534 260.4162 0001016  66.8680 293.2416 15.06399082 54568","MEAN_MOTION_DDOT":"0.0000000000000","INCLINATION":"53.0534","OBJECT_ID":"2020-070AR","GP_ID":"185429816","BSTAR":"-0.00000520780000","TIME_SYSTEM":"UTC","SITE":"AFETR","RCS_SIZE":"LARGE","TLE_LINE1":"1 46571U 20070AR  21267.71199209 -.00000359  00000-0 -52078-5 0  9994","PERIOD":"95.592","EPOCH":"2021-09-24T17:05:16.116576","CENTER_NAME":"EARTH","REV_AT_EPOCH":"5456","REF_FRAME":"TEME","RA_OF_ASC_NODE":"260.4162","MEAN_MOTION_DOT":"-0.00000359","LAUNCH_DATE":"2020-10-06","OBJECT_NAME":"STARLINK-1753","MEAN_MOTION":"15.06399082","ELEMENT_SET_NO":"999","DECAY_DATE":null,"MEAN_ELEMENT_THEORY":"SGP4","COUNTRY_CODE":"US","FILE":"3126800","MEAN_ANOMALY":"293.2416","EPHEMERIS_TYPE":"0","NORAD_CAT_ID":"46571","APOAPSIS":"547.920","OBJECT_TYPE":"PAYLOAD","CLASSIFICATION_TYPE":"U","ARG_OF_PERICENTER":"66.8680"},{"PERIOD":"95.592","TLE_LINE1":"1 46572U 20070AS  21267.74701252  .00002239  00000-0  16914-3 0  9999","CENTER_NAME":"EARTH","EPOCH":"2021-09-24T17:55:41.881728","REV_AT_EPOCH":"5428","ECCENTRICITY":"0.00009580","PERIAPSIS":"546.531","SEMIMAJOR_AXIS":"6925.330","TLE_LINE2":"2 46572  53.0545 280.2557 0000958  88.3965 271.7133 15.06406216 54282","OBJECT_ID":"2020-070AS","MEAN_MOTION_DDOT":"0.0000000000000","INCLINATION":"53.0545","BSTAR":"0.00016914000000","GP_ID":"185428565","RCS_SIZE":"LARGE","SITE":"AFETR","TIME_SYSTEM":"UTC","MEAN_ANOMALY":"271.7133","FILE":"3126800","COUNTRY_CODE":"US","NORAD_CAT_ID":"46572","EPHEMERIS_TYPE":"0","APOAPSIS":"547.858","OBJECT_TYPE":"PAYLOAD","CLASSIFICATION_TYPE":"U","ARG_OF_PERICENTER":"88.3965","REF_FRAME":"TEME","RA_OF_ASC_NODE":"280.2557","MEAN_MOTION_DOT":"0.00002239","LAUNCH_DATE":"2020-10-06","OBJECT_NAME":"STARLINK-1531","MEAN_MOTION":"15.06406216","MEAN_ELEMENT_THEORY":"SGP4","ELEMENT_SET_NO":"999","DECAY_DATE":null},{"PERIOD":"95.593","TLE_LINE1":"1 46573U 20070AT  21267.72443347 -.00000643  00000-0 -24282-4 0  9993","CENTER_NAME":"EARTH","EPOCH":"2021-09-24T17:23:11.051808","REV_AT_EPOCH":"5449","ECCENTRICITY":"0.00011580","SEMIMAJOR_AXIS":"6925.369","PERIAPSIS":"546.432","TLE_LINE2":"2 46573  53.0542 265.3494 0001158  70.9519 289.1595 15.06393395 54490","OBJECT_ID":"2020-070AT","INCLINATION":"53.0542","MEAN_MOTION_DDOT":"0.0000000000000","BSTAR":"-0.00002428200000","GP_ID":"185428815","SITE":"AFETR","RCS_SIZE":"LARGE","TIME_SYSTEM":"UTC","COUNTRY_CODE":"US","FILE":"3126800","MEAN_ANOMALY":"289.1595","EPHEMERIS_TYPE":"0","NORAD_CAT_ID":"46573","APOAPSIS":"548.036","CLASSIFICATION_TYPE":"U","OBJECT_TYPE":"PAYLOAD","ARG_OF_PERICENTER":"70.9519","REF_FRAME":"TEME","RA_OF_ASC_NODE":"265.3494","MEAN_MOTION_DOT":"-0.00000643","LAUNCH_DATE":"2020-10-06","OBJECT_NAME":"STARLINK-1650","MEAN_MOTION":"15.06393395","MEAN_ELEMENT_THEORY":"SGP4","ELEMENT_SET_NO":"999","DECAY_DATE":null},{"MEAN_ELEMENT_THEORY":"SGP4","ELEMENT_SET_NO":"999","DECAY_DATE":null,"MEAN_MOTION":"15.06403110","OBJECT_NAME":"STARLINK-1660","LAUNCH_DATE":"2020-10-06","MEAN_MOTION_DOT":"-0.00000651","RA_OF_ASC_NODE":"265.4269","REF_FRAME":"TEME","ARG_OF_PERICENTER":"81.4555","OBJECT_TYPE":"PAYLOAD","CLASSIFICATION_TYPE":"U","APOAPSIS":"548.050","NORAD_CAT_ID":"46574","EPHEMERIS_TYPE":"0","COUNTRY_CODE":"US","FILE":"3126800","MEAN_ANOMALY":"278.6573","TIME_SYSTEM":"UTC","SITE":"AFETR","RCS_SIZE":"LARGE","BSTAR":"-0.00002479200000","GP_ID":"185429564","OBJECT_ID":"2020-070AU","MEAN_MOTION_DDOT":"0.0000000000000","INCLINATION":"53.0540","TLE_LINE2":"2 46574  53.0540 265.4269 0001221  81.4555 278.6573 15.06403110 54494","PERIAPSIS":"546.358","SEMIMAJOR_AXIS":"6925.339","ECCENTRICITY":"0.00012210","REV_AT_EPOCH":"5449","EPOCH":"2021-09-24T17:01:56.733024","CENTER_NAME":"EARTH","PERIOD":"95.592","TLE_LINE1":"1 46574U 20070AU  21267.70968441 -.00000651  00000-0 -24792-4 0  9994"}];
